NORAD_CAT_ID,OBJECT_NAME,OBJECT_TYPE,EPOCH,MEAN_MOTION,ECCENTRICITY,INCLINATION,RA_OF_ASC_NODE,ARG_OF_PERICENTER,MEAN_ANOMALY,BSTAR,MEAN_MOTION_DOT,MEAN_MOTION_DDOT,TLE_LINE0,TLE_LINE1,TLE_LINE2,SEMIMAJOR_AXIS,PERIOD,APOGEE,PERIGEE,DECAYED
53158.0,STARLINK-4054,PAYLOAD,2022-12-12 22:39:54,15.08837328,0.0001649,53.2185,73.6638,47.4454,312.6677,6.2896e-05,7.13e-06,0.0,0 STARLINK-4054,1 53158U 22083AC  22346.94437778  .00000713  00000-0  62896-4 0  9999,2 53158  53.2185  73.6638 0001649  47.4454 312.6677 15.08837328 23438,6917.889,95.438,540.894,538.613,0.0
53158.0,STARLINK-4054,PAYLOAD,2022-12-13 09:47:36,15.08833655,0.0001633,53.2186,71.5821,49.3319,310.7815,8.2155e-05,1.02e-05,0.0,0 STARLINK-4054,1 53158U 22083AC  22347.40806059  .00001020  00000-0  82155-4 0  9995,2 53158  53.2186  71.5821 0001633  49.3319 310.7815 15.08833655 22873,6917.9,95.438,540.894,538.635,0.0
53158.0,STARLINK-4054,PAYLOAD,2022-12-14 11:13:46,15.08843218,0.0001708,53.2185,66.825,52.7255,307.3893,0.00010658,1.409e-05,0.0,0 STARLINK-4054,1 53158U 22083AC  22348.46789493  .00001409  00000-0  10658-3 0  9993,2 53158  53.2185  66.8250 0001708  52.7255 307.3893 15.08843218 23038,6917.871,95.437,540.9169999999998,538.554,0.0
53158.0,STARLINK-4054,PAYLOAD,2022-12-14 17:35:19,15.08833789,0.0001974,53.2181,65.6362,44.3434,315.7716,1.5582e-05,-4e-07,0.0,0 STARLINK-4054,1 53158U 22083AC  22348.73286444 -.00000040  00000-0  15582-4 0  9994,2 53158  53.2181  65.6362 0001974  44.3434 315.7716 15.08833789 23709,6917.899,95.438,541.13,538.399,0.0
53158.0,STARLINK-4054,PAYLOAD,2022-12-15 04:43:02,15.08825626,0.0001496,53.2188,63.554,40.9909,319.1195,-8.4439e-06,-4.22e-06,0.0,0 STARLINK-4054,1 53158U 22083AC  22349.19655213 -.00000422  00000-0 -84439-5 0  9992,2 53158  53.2188  63.5540 0001496  40.9909 319.1195 15.08825626 23776,6917.924,95.438,540.8240000000002,538.754,0.0
53158.0,STARLINK-4054,PAYLOAD,2022-12-15 11:04:34,15.08837436,0.0001809,53.2178,62.3635,47.9042,312.2103,8.0017e-05,9.86e-06,0.0,0 STARLINK-4054,1 53158U 22083AC  22349.46150509  .00000986  00000-0  80017-4 0  9990,2 53158  53.2178  62.3635 0001809  47.9042 312.2103 15.08837436 23810,6917.888000000001,95.438,541.005,538.502,0.0
53158.0,STARLINK-4054,PAYLOAD,2022-12-15 12:39:56,15.08839093,0.0001814,53.2173,62.0664,46.992,313.1224,0.00010319,1.355e-05,0.0,0 STARLINK-4054,1 53158U 22083AC  22349.52774227  .00001355  00000-0  10319-3 0  9994,2 53158  53.2173  62.0664 0001814  46.9920 313.1224 15.08839093 23190,6917.8830000000025,95.438,541.003,538.493,0.0
53158.0,STARLINK-4054,PAYLOAD,2022-12-15 14:15:20,15.08841269,0.0001817,53.2171,61.7688,46.3268,313.7875,0.00014021,1.944e-05,0.0,0 STARLINK-4054,1 53158U 22083AC  22349.59398156  .00001944  00000-0  14021-3 0  9992,2 53158  53.2171  61.7688 0001817  46.3268 313.7875 15.08841269 23200,6917.877,95.437,540.998,538.485,0.0
53158.0,STARLINK-4054,PAYLOAD,2022-12-15 22:12:15,15.08847987,0.0001673,53.2173,60.2821,39.9604,320.1511,0.00030529,4.575e-05,0.0,0 STARLINK-4054,1 53158U 22083AC  22349.92517740  .00004575  00000-0  30529-3 0  9995,2 53158  53.2173  60.2821 0001673  39.9604 320.1511 15.08847987 23883,6917.856,95.437,540.878,538.564,0.0
53158.0,STARLINK-4054,PAYLOAD,2022-12-16 10:55:21,15.0882084,0.0001885,53.2154,57.9042,41.3232,318.7903,-0.00040981,-6.801e-05,0.0,0 STARLINK-4054,1 53158U 22083AC  22350.45510582 -.00006801  00000-0 -40981-3 0  9991,2 53158  53.2154  57.9042 0001885  41.3232 318.7903 15.08820840 23965,6917.939,95.439,541.1080000000002,538.5,0.0
53158.0,STARLINK-4054,PAYLOAD,2022-12-16 14:06:06,15.08842376,0.0001841,53.2157,57.3093,44.4015,315.7125,0.00016199,2.291e-05,0.0,0 STARLINK-4054,1 53158U 22083AC  22350.58758047  .00002291  00000-0  16199-3 0  9996,2 53158  53.2157  57.3093 0001841  44.4015 315.7125 15.08842376 23986,6917.873000000001,95.437,541.012,538.465,0.0
53158.0,STARLINK-4054,PAYLOAD,2022-12-17 10:46:07,15.08845767,0.0001896,53.2176,53.4434,46.2337,313.8812,0.00011569,1.554e-05,0.0,0 STARLINK-4054,1 53158U 22083AC  22351.44869775  .00001554  00000-0  11569-3 0  9990,2 53158  53.2176  53.4434 0001896  46.2337 313.8812 15.08845767 23484,6917.863,95.437,541.039,538.4159999999998,0.0
53158.0,STARLINK-4054,PAYLOAD,2022-12-17 15:32:17,15.08832778,0.0001962,53.2174,52.5512,44.7587,315.3563,-0.00012292,-2.244e-05,0.0,0 STARLINK-4054,1 53158U 22083AC  22351.64742225 -.00002244  00000-0 -12292-3 0  9995,2 53158  53.2174  52.5512 0001962  44.7587 315.3563 15.08832778 24145,6917.901999999999,95.438,541.125,538.41,0.0
53158.0,STARLINK-4054,PAYLOAD,2022-12-18 10:36:55,15.08833507,0.0001958,53.2179,48.9827,46.7566,313.3589,7.6353e-05,9.27e-06,0.0,0 STARLINK-4054,1 53158U 22083AC  22352.44231028  .00000927  00000-0  76353-4 0  9991,2 53158  53.2179  48.9827 0001958  46.7566 313.3589 15.08833507 23632,6917.9,95.438,541.12,538.411,0.0
53158.0,STARLINK-4054,PAYLOAD,2022-12-18 15:23:04,15.088386300000002,0.0001993,53.2181,48.0911,47.658,312.458,0.00018579,2.67e-05,0.0,0 STARLINK-4054,1 53158U 22083AC  22352.64103005  .00002670  00000-0  18579-3 0  9998,2 53158  53.2181  48.0911 0001993  47.6580 312.4580 15.08838630 23661,6917.885,95.438,541.128,538.371,0.0
53158.0,STARLINK-4054,PAYLOAD,2022-12-19 08:52:19,15.08845277,0.0001811,53.2182,44.8207,46.6992,313.4151,0.00043991,6.721e-05,0.0,0 STARLINK-4054,1 53158U 22083AC  22353.36967030  .00006721  00000-0  43991-3 0  9991,2 53158  53.2182  44.8207 0001811  46.6992 313.4151 15.08845277 24402,6917.864000000001,95.437,540.982,538.476,0.0
53158.0,STARLINK-4054,PAYLOAD,2022-12-19 15:13:52,15.08835289,0.0001767,53.2178,43.6305,51.1458,308.9692,8.0139e-05,9.87e-06,0.0,0 STARLINK-4054,1 53158U 22083AC  22353.63463255  .00000987  00000-0  80139-4 0  9995,2 53158  53.2178  43.6305 0001767  51.1458 308.9692 15.08835289 24446,6917.895,95.438,540.982,538.5369999999998,0.0
53158.0,STARLINK-4054,PAYLOAD,2022-12-19 20:00:01,15.08835199,0.0001774,53.2179,42.7384,51.0841,309.0309,5.8324e-05,6.4e-06,0.0,0 STARLINK-4054,1 53158U 22083AC  22353.83335281  .00000640  00000-0  58324-4 0  9991,2 53158  53.2179  42.7384 0001774  51.0841 309.0309 15.08835199 23847,6917.895,95.438,540.987,538.533,0.0
53158.0,STARLINK-4054,PAYLOAD,2022-12-20 10:18:29,15.08846758,0.00019,53.2184,40.0626,49.7368,310.379,0.00029342,4.386e-05,0.0,0 STARLINK-4054,1 53158U 22083AC  22354.42950444  .00004386  00000-0  29342-3 0  9999,2 53158  53.2184  40.0626 0001900  49.7368 310.3790 15.08846758 24564,6917.86,95.437,541.039,538.41,0.0
53158.0,STARLINK-4054,PAYLOAD,2022-12-20 11:53:52,15.08854247,0.0001967,53.2179,39.7651,52.027,308.0899,0.00032682,4.919e-05,0.0,0 STARLINK-4054,1 53158U 22083AC  22354.49574424  .00004919  00000-0  32682-3 0  9999,2 53158  53.2179  39.7651 0001967  52.0270 308.0899 15.08854247 23940,6917.837,95.437,541.063,538.341,0.0
53158.0,STARLINK-4054,PAYLOAD,2022-12-21 03:47:45,15.08823626,0.0001861,53.2179,36.7916,60.8717,299.2461,-0.00022111,-3.804e-05,0.0,0 STARLINK-4054,1 53158U 22083AC  22355.15816138 -.00003804  00000-0 -22111-3 0  9994,2 53158  53.2179  36.7916 0001861  60.8717 299.2461 15.08823626 24671,6917.93,95.439,541.0830000000002,538.508,0.0
53158.0,STARLINK-4054,PAYLOAD,2022-12-21 10:09:17,15.08834388,0.0001778,53.2179,35.6026,56.8808,303.2354,9.7048e-05,1.257e-05,0.0,0 STARLINK-4054,1 53158U 22083AC  22355.42311807  .00001257  00000-0  97048-4 0  9997,2 53158  53.2179  35.6026 0001778  56.8808 303.2354 15.08834388 24713,6917.898,95.438,540.993,538.533,0.0
53158.0,STARLINK-4054,PAYLOAD,2022-12-21 11:44:40,15.08833147,0.0001809,53.2179,35.3054,64.8017,295.3162,0.00029976,4.485e-05,0.0,0 STARLINK-4054,1 53158U 22083AC  22355.48935761  .00004485  00000-0  29976-3 0  9994,2 53158  53.2179  35.3054 0001809  64.8017 295.3162 15.08833147 24098,6917.901,95.438,541.018,538.515,0.0
53158.0,STARLINK-4054,PAYLOAD,2022-12-22 02:03:08,15.08851785,0.0001794,53.2174,32.6295,68.2042,291.9141,0.001279,0.00020132,0.0,0 STARLINK-4054,1 53158U 22083AC  22356.08551944  .00020132  00000-0  12790-2 0  9990,2 53158  53.2174  32.6295 0001794  68.2042 291.9141 15.08851785 24816,6917.844,95.437,540.95,538.4680000000002,0.0
53158.0,STARLINK-4054,PAYLOAD,2022-12-22 11:35:27,15.0886492,0.0001835,53.2172,30.8457,67.089,293.0295,0.001136,0.0001785,0.0,0 STARLINK-4054,1 53158U 22083AC  22356.48295429  .00017850  00000-0  11360-2 0  9992,2 53158  53.2172  30.8457 0001835  67.0890 293.0295 15.08864920 24243,6917.804,95.436,540.939,538.4,0.0
53158.0,STARLINK-4054,PAYLOAD,2022-12-23 01:53:55,15.08863374,0.0001504,53.2172,28.169,74.6467,285.4691,0.0010464,0.00016415,0.0,0 STARLINK-4054,1 53158U 22083AC  22357.07910962  .00016415  00000-0  10464-2 0  9994,2 53158  53.2172  28.1690 0001504  74.6467 285.4691 15.08863374 24965,6917.809,95.436,540.714,538.634,0.0
53158.0,STARLINK-4054,PAYLOAD,2022-12-23 08:15:27,15.088468,0.0001759,53.2168,26.9795,65.7435,294.3741,0.0007757999999999,0.00012083,0.0,0 STARLINK-4054,1 53158U 22083AC  22357.34407344  .00012083  00000-0  77580-3 0  9999,2 53158  53.2168  26.9795 0001759  65.7435 294.3741 15.08846800 25006,6917.86,95.437,540.941,538.508,0.0
53158.0,STARLINK-4054,PAYLOAD,2022-12-23 09:50:50,15.08848149,0.0001611,53.217,26.6819,63.5812,296.5345,0.00031345,4.705e-05,0.0,0 STARLINK-4054,1 53158U 22083AC  22357.41031211  .00004705  00000-0  31345-3 0  9994,2 53158  53.2170  26.6819 0001611  63.5812 296.5345 15.08848149 24387,6917.855,95.437,540.835,538.606,0.0
53158.0,STARLINK-4054,PAYLOAD,2022-12-23 19:23:10,15.08832714,0.0001705,53.216,24.8985,62.3418,297.7747,7.4675e-05,9e-06,0.0,0 STARLINK-4054,1 53158U 22083AC  22357.80775799  .00000900  00000-0  74675-4 0  9990,2 53158  53.2160  24.8985 0001705  62.3418 297.7747 15.08832714 24440,6917.903,95.438,540.947,538.5880000000002,0.0
